ONEWEB-0012             
1 44057U 19010A   24353.67100661  .00000042  00000+0  75368-4 0  9993
2 44057  87.9084 337.4899 0001355  59.9727 300.1538 13.16596326279813
ONEWEB-0010             
1 44058U 19010B   24353.24035633  .00000006  00000+0 -17940-4 0  9996
2 44058  87.9085 337.5566 0001268  91.9473 268.1803 13.16594252279773
ONEWEB-0008             
1 44059U 19010C   24353.87367460  .00000102  00000+0  23382-3 0  9994
2 44059  87.9087 337.4317 0001977  88.6320 271.5037 13.16594210279984
ONEWEB-0007             
1 44060U 19010D   24353.32347563  .00000017  00000+0  10412-4 0  9994
2 44060  87.9074   7.8922 0001483  82.0642 278.0656 13.15551047279607
ONEWEB-0006             
1 44061U 19010E   24353.78378276  .00000009  00000+0 -90560-5 0  9995
2 44061  87.9063   7.7668 0001452  90.1412 269.9884 13.15550085279718
ONEWEB-0011             
1 44062U 19010F   24353.29734644 -.00000037  00000+0 -13231-3 0  9997
2 44062  87.9066   7.8680 0001666 101.9447 258.1870 13.15549619279641
ONEWEB-0013             
1 45131U 20008A   24353.20442582 -.00000607  00000+0 -18005-2 0  9998
2 45131  87.8626 162.8066 0001982  64.2853 295.8478 13.09407464234617
ONEWEB-0017             
1 45132U 20008B   24353.19631965  .00000529  00000+0  14800-2 0  9992
2 45132  87.8894 145.0236 0001307 105.7765 254.3506 13.10373096236441
